IRIDIUM 63              
1 25286U 98021B   25098.73144657  .00000820  00000+0  27299-3 0  9995
2 25286  86.3930 111.2795 0002419  93.2998 266.8476 14.36467591413874
IRIDIUM 69              
1 25319U 98026A   25098.81786806  .00000939  00000+0  28707-3 0  9990
2 25319  86.3945 124.7443 0000748 168.6926 191.4290 14.40877305413079
IRIDIUM 71              
1 25320U 98026B   25098.90348487  .00000823  00000+0  24962-3 0  9992
2 25320  86.3934 119.4106 0001710  29.1452 330.9843 14.41075647413615
IRIDIUM 73              
1 25344U 98032C   25098.92453114  .00001518  00000+0  37422-3 0  9998
2 25344  86.4373  76.2314 0001940 100.0035 260.1389 14.51590957420514
IRIDIUM 82              
1 25467U 98051A   25098.84904436  .00038800  00000+0  12359-2 0  9999
2 25467  86.3697 143.7313 0092218 197.4854 162.3215 15.28254962413357
